STARLINK-31662          
1 59584U 24076W   26068.24697533  .00007869  00000+0  29564-3 0  9999
2 59584  43.0010  11.6107 0001342 243.6709 116.4005 15.27527147106430
LUR-1                   
1 60506U 24149AQ  26068.79566301  .00009121  00000+0  32985-3 0  9998
2 60506  97.3790 148.4255 0002777 309.1571  50.9421 15.28658648 86785
